{"addresses":[{"id":1,"name":"Sigrid Murazik","streetAddress":"652 Kelton Islands","city":"Leannonhaven","state":"New Hampshire","zipCode":"83115","phone":"896-516-7002"},{"id":2,"name":"Jon Kilback","streetAddress":"13766 Sterling Path","city":"South Shanonside","state":"North Carolina","zipCode":"25352","phone":"1-507-704-2974 x32097"},{"id":3,"name":"Ines Hills","streetAddress":"24071 Baylee Skyway","city":"Waelchiborough","state":"Georgia","zipCode":"01537","phone":"903.566.9139"},{"id":4,"name":"Rose Stroman","streetAddress":"8731 Erdman Hill","city":"East Susie","state":"Indiana","zipCode":"83794-8080","phone":"1-737-484-1214 x602"},{"id":5,"name":"Sid King","streetAddress":"688 Chelsie Expressway","city":"Hammesberg","state":"Virginia","zipCode":"93138-0981","phone":"(251) 462-2335"},{"id":6,"name":"Aryanna Schinner","streetAddress":"36349 Zion Extensions","city":"Larkinberg","state":"Vermont","zipCode":"06032","phone":"793-350-1977 x68672"},{"id":7,"name":"Trace Lueilwitz","streetAddress":"792 Stiedemann Radial","city":"Jacklynborough","state":"Connecticut","zipCode":"34297-6499","phone":"(236) 257-7355 x8517"},{"id":8,"name":"Magnolia Veum","streetAddress":"233 Lourdes Plain","city":"Darebury","state":"Utah","zipCode":"70757-5064","phone":"(276) 995-4481 x105"},{"id":9,"name":"Damion Spinka","streetAddress":"20309 Rosario View","city":"Hackettfurt","state":"Oregon","zipCode":"15770-6359","phone":"1-889-279-7892"},{"id":10,"name":"Hanna Welch","streetAddress":"263 Kiel Expressway","city":"West Joey","state":"South Carolina","zipCode":"56234","phone":"913.625.6166 x87138"},{"id":11,"name":"Jarrod Feeney","streetAddress":"27825 Sanford Tunnel","city":"McDermottburgh","state":"Connecticut","zipCode":"73366","phone":"587-762-6022 x9185"},{"id":12,"name":"Antwan Okuneva","streetAddress":"2537 Runolfsdottir Brooks","city":"Fletaview","state":"New Mexico","zipCode":"87427","phone":"1-428-913-1948 x12263"},{"id":13,"name":"Tyrell Harvey","streetAddress":"05905 Johns Plaza","city":"Nadermouth","state":"New Mexico","zipCode":"29107","phone":"366.814.4295 x35830"},{"id":14,"name":"Claudia Ledner","streetAddress":"9608 Justina Parkways","city":"Lake Leechester","state":"Delaware","zipCode":"06314-3479","phone":"1-916-448-5493"},{"id":15,"name":"Ted Herzog","streetAddress":"87199 Lemuel Field","city":"Arnoldfort","state":"Arizona","zipCode":"75866-0809","phone":"235-495-6448 x8748"}]}
